KUIPER-00619            
1 69777U 26151Q   26200.26877199  .00009543  00000+0  25633-3 0  9992
2 69777  51.8811 160.5397 0001749  84.0608 276.0578 15.38604927  2642
KUIPER-00621            
1 69778U 26151R   26200.27131013  .00007434  00000+0  20390-3 0  9994
2 69778  51.8796 160.5599 0003334 139.3055 220.8182 15.38312623  2648
KUIPER-00622            
1 69779U 26151S   26200.28589181  .00011304  00000+0  31771-3 0  9995
2 69779  51.8742 160.6526 0006655 160.4946 199.6296 15.36979546  2644
KUIPER-00623            
1 69780U 26151T   26198.26556190  .00133416  00000+0  34980-2 0  9998
2 69780  51.8777 170.3650 0006129 146.6000 213.5375 15.37672053  2337
KUIPER-00626            
1 69781U 26151U   26200.16976289  .00005691  00000+0  17632-3 0  9996
2 69781  51.8729 161.3712 0010726 179.1743 180.9262 15.34917480  2624
KUIPER-00627            
1 69782U 26151V   26200.23724790 -.00068435  00000+0 -20283-2 0  9995
2 69782  51.8694 161.0688 0009515 187.3495 172.7353 15.34383700  2637
KUIPER-00629            
1 69783U 26151W   26200.25002315 -.01234732  00000+0 -45030-1 0  9992
2 69783  51.8788 160.9811 0006424 173.0640 287.9389 15.30384521  2960
KUIPER-00631            
1 69784U 26151X   26200.25002315  .00005131  00000+0  18654-3 0  9993
2 69784  51.8755 160.9634 0008117 172.0235 289.3926 15.29939120  1307
KUIPER-00634            
1 69785U 26151Y   26200.27765007  .00010740  00000+0  29463-3 0  9992
2 69785  51.8781 160.6005 0003682 150.3811 209.7385 15.37805044  2646
KUIPER-00639            
1 69786U 26151Z   26200.29693365 -.00025915  00000+0 -74087-3 0  9996
2 69786  51.8695 160.7195 0009552 174.4078 185.7017 15.35046639  2646
KUIPER-00641            
1 69787U 26151AA  26200.25002315  .00018645  00000+0  56176-3 0  9991
2 69787  51.8681 161.0246 0011473 174.5198 247.4049 15.34308057  3277
KUIPER-00644            
1 69788U 26151AB  26200.25002315  .00025678  00000+0  71682-3 0  9995
2 69788  51.8750 160.8847 0008118 172.9715 320.5134 15.36532063  3577
KUIPER-00646            
1 69789U 26151AC  26200.29555927 -.00066035  00000+0 -18801-2 0  9999
2 69789  51.8703 160.7124 0009096 181.1324 178.9643 15.35627559  2648
KUIPER-00647            
1 69790U 26151AD  26200.30076938  .00021319  00000+0  62667-3 0  9997
2 69790  51.8664 160.7423 0010519 183.8759 176.2147 15.35006699  2647
KUIPER-00662            
1 69791U 26151AE  26200.22592641  .00009620  00000+0  27574-3 0  9992
2 69791  51.8750 160.9998 0008199 173.5382 186.5711 15.36544855  2634
LINK                    
1 69792U 26152A   26199.55753721  .00092753  00000+0  77286-3 0  9999
2 69792  20.5910 301.5041 0024958  41.6624 318.5720 15.67914384  2384
2026-152B               
1 69793U 26152B   26199.95447191  .00033307  00000+0  30949-3 0  9990
2 69793  20.5977 298.7275 0023035  45.0737 315.1574 15.65042614  2445
ISS OBJECT YJ           
1 69794U 98067YJ  26200.11179682  .00020181  00000+0  35807-3 0  9997
2 69794  51.6314 141.9980 0007744 325.3925  34.6560 15.50182327  2606
ISS OBJECT YK           
1 69795U 98067YK  26200.23503200  .00033983  00000+0  57980-3 0  9998
2 69795  51.6313 141.3216 0006577 333.1565  26.9083 15.50990090  2622
ISS OBJECT YL           
1 69796U 98067YL  26200.10779527  .00026702  00000+0  46238-3 0  9997
2 69796  51.6315 141.9719 0008705 326.3612  33.6823 15.50684262  2595
ISS OBJECT YM           
1 69797U 98067YM  26199.14076886  .00029042  00000+0  50205-3 0  9996
2 69797  51.6314 146.7645 0009527 314.1271  45.8934 15.50677012  2431
ISS OBJECT YN           
1 69798U 98067YN  26200.10872322  .00018086  00000+0  31862-3 0  9999
2 69798  51.6318 141.9780 0009202 329.2004  30.8444 15.50452784  2600
PROVES-ELECTRA          
1 69799U 98067YP  26200.10737872  .00026602  00000+0  45997-3 0  9997
2 69799  51.6316 141.9691 0009675 317.1794  42.8441 15.50719753  2596
QIANFAN-201             
1 69800U 26153A   26199.18856381 -.01723216  00000+0 -84414+0 0  9990
2 69800  88.9921 358.7016 0006905 149.7286 210.4306 14.22000035  1979
QIANFAN-202             
1 69801U 26153B   26200.27266690  .00000172  00000+0  75823-4 0  9997
2 69801  88.9927 358.5846 0007139 162.2751 197.8689 14.18844017  2123
QIANFAN-203             
1 69802U 26153C   26199.34660293 -.01871829  00000+0 -99096+0 0  9991
2 69802  88.9920 358.6881 0012649 191.3457 168.7448 14.17511061  1998
QIANFAN-204             
1 69803U 26153D   26200.26761101  .00000133  00000+0  55862-4 0  9993
2 69803  88.9927 358.5838 0008103 165.6876 194.4545 14.20114716  2126
QIANFAN-205             
1 69804U 26153E   26199.91204104  .00000105  00000+0  40608-4 0  9999
2 69804  88.9926 358.6234 0007957 170.5286 189.6057 14.22264904  2078
QIANFAN-206             
1 69805U 26153F   26199.90127854  .00000046  00000+0  13589-4 0  9997
2 69805  88.9926 358.6219 0008440 171.1991 188.9351 14.24034656  2070
QIANFAN-207             
1 69806U 26153G   26200.25076515  .00000140  00000+0  54340-4 0  9991
2 69806  88.9927 358.5812 0007925 170.1910 189.9439 14.24251246  2127
QIANFAN-208             
1 69807U 26153H   26199.89589782  .00000160  00000+0  61583-4 0  9993
2 69807  88.9926 358.6211 0008667 171.9931 188.1402 14.25462891  2073
QIANFAN-209             
1 69808U 26153J   26199.97274045  .00000138  00000+0  54960-4 0  9992
2 69808  88.9926 358.6140 0007809 168.3428 191.7946 14.23086850  2082
QIANFAN-210             
1 69809U 26153K   26200.25035906  .00000126  00000+0  49107-4 0  9992
2 69809  88.9927 358.5812 0008398 170.1877 189.9480 14.23252975  2122
QIANFAN-211             
1 69810U 26153L   26200.24968808  .00000120  00000+0  46646-4 0  9998
2 69810  88.9927 358.5810 0008018 167.2362 192.9035 14.23382506  2121
QIANFAN-212             
1 69811U 26153M   26199.18924639 -.02018720  00000+0 -97540+0 0  9996
2 69811  88.9888 358.7049 0012200 152.0967 208.0882 14.22682297  1975
QIANFAN-213             
1 69812U 26153N   26198.90858230 -.02004805  00000+0 -98228+0 0  9992
2 69812  88.9917 358.7338 0007827 155.5754 204.5809 14.21939575  1930
QIANFAN-214             
1 69813U 26153P   26199.96087807  .00000060  00000+0  18792-4 0  9992
2 69813  88.9926 358.6122 0008141 171.0888 189.0452 14.26672643  2085
QIANFAN-215             
1 69814U 26153Q   26199.96081115  .00000127  00000+0  46376-4 0  9992
2 69814  88.9925 358.6119 0008354 173.3885 186.7420 14.26719080  2085
QIANFAN-216             
1 69815U 26153R   26200.24134534  .00000151  00000+0  56527-4 0  9997
2 69815  88.9926 358.5797 0008370 172.3693 187.7630 14.26720363  2127
QIANFAN-217             
1 69816U 26153S   26200.24083370  .00000052  00000+0  15192-4 0  9992
2 69816  88.9925 358.5795 0008063 169.0544 191.0827 14.26768184  2121
QIANFAN-218             
1 69817U 26153T   26200.24039915  .00000126  00000+0  45835-4 0  9998
2 69817  88.9928 358.5799 0007840 166.4259 193.7147 14.26811417  2127
CZ-6A R/B               
1 69818U 26153U   26200.24479018  .00000165  00000+0  33465-4 0  9990
2 69818  89.0168 358.4996 0086967  73.4830 287.5911 14.53449708  2168
STARLINK-37520          
1 69819U 26154A   26200.24094664  .00321111  00000+0  15597-2 0  9993
2 69819  53.1575 272.6769 0000723  97.2107 262.8998 15.81024470  3456
STARLINK-37553          
1 69820U 26154B   26200.24019534  .00306150  00000+0  14904-2 0  9995
2 69820  53.1573 272.6719 0000588 141.6324 218.4741 15.81016714  3450
STARLINK-37561          
1 69821U 26154C   26200.23944532  .00312680  00000+0  15205-2 0  9990
2 69821  53.1575 272.6659 0000899 122.6824 237.4285 15.81023210  3458
STARLINK-37521          
1 69822U 26154D   26200.23869455  .00317866  00000+0  15455-2 0  9999
2 69822  53.1574 272.6614 0001463 128.4702 231.6452 15.81012767  3453
STARLINK-37628          
1 69823U 26154E   26200.23794530  .00336611  00000+0  16312-2 0  9993
2 69823  53.1578 272.6561 0000765 112.0917 248.0188 15.81033749  3451
STARLINK-37695          
1 69824U 26154F   26200.25002315 -.00036152  00000+0 -18019-3 0  9995
2 69824  53.1586 272.5135 0000830 105.1035   3.3264 15.80896979  3328
STARLINK-37690          
1 69825U 26154G   26200.25002315 -.00025495  00000+0 -12590-3 0  9992
2 69825  53.1584 272.5780 0001217  98.2764 339.1452 15.80890540  3321
STARLINK-37710          
1 69826U 26154H   26200.25002315 -.00042550  00000+0 -21296-3 0  9997
2 69826  53.1584 272.5690 0000972  99.4658 342.2303 15.80887455  3325
STARLINK-38031          
1 69827U 26154J   26200.25002315 -.00026430  00000+0 -13066-3 0  9993
2 69827  53.1585 272.5599 0001086  95.6980 350.2654 15.80892102  3321
STARLINK-38001          
1 69828U 26154K   26200.25002315 -.00029432  00000+0 -14594-3 0  9996
2 69828  53.1587 272.5511 0001132  99.5365 350.6997 15.80893410  3327
STARLINK-37622          
1 69829U 26154L   26200.25002315 -.00019636  00000+0 -96094-4 0  9998
2 69829  53.1586 272.5424 0001202  92.1940   2.3146 15.80889504  3322
STARLINK-37621          
1 69830U 26154M   26200.25002315 -.00024352  00000+0 -12008-3 0  9993
2 69830  53.1586 272.5335 0001132 101.2469 357.5335 15.80891467  3321
STARLINK-37918          
1 69831U 26154N   26200.25002315 -.00046533  00000+0 -23325-3 0  9993
2 69831  53.1584 272.5247 0001210  84.2016  18.8504 15.80894067  3321
STARLINK-37887          
1 69832U 26154P   26200.25002315 -.00022969  00000+0 -11304-3 0  9995
2 69832  53.1586 272.5156 0000986  92.8132  14.5097 15.80891937  3329
STARLINK-37624          
1 69833U 26154Q   26200.25002315 -.00019795  00000+0 -96897-4 0  9990
2 69833  53.1584 272.5066 0001196  95.0786  16.5165 15.80890386  3327
STARLINK-37769          
1 69834U 26154R   26200.25002315 -.00022602  00000+0 -11122-3 0  9999
2 69834  53.1583 272.4978 0001183  89.0780  26.7923 15.80882061  3327
STARLINK-37247          
1 69835U 26154S   26200.25002315 -.00026668  00000+0 -13186-3 0  9998
2 69835  53.1583 272.4891 0001135  98.2090  21.9285 15.80893004  3423
STARLINK-37569          
1 69836U 26154T   26200.25002315 -.00017912  00000+0 -87350-4 0  9996
2 69836  53.1584 272.4805 0001105  99.8308  24.5803 15.80884070  3323
